GPS BIIR-2  (PRN 13)    
1 24876U 97035A   24244.06463764 -.00000018  00000+0  00000+0 0  9991
2 24876  55.6912 124.2043 0083571  53.6779 307.1644  2.00561005198815
GPS BIIR-4  (PRN 20)    
1 26360U 00025A   24244.68452187 -.00000058  00000+0  00000+0 0  9993
2 26360  54.7283  45.8074 0038798 216.0891 319.0302  2.00573535178147
GPS BIIR-5  (PRN 22)    
1 26407U 00040A   24244.90581200  .00000021  00000+0  00000+0 0  9995
2 26407  55.0401 241.1700 0143465 295.4657 239.2032  2.00561315176820
GPS BIIR-8  (PRN 16)    
1 27663U 03005A   24244.70220310  .00000023  00000+0  00000+0 0  9996
2 27663  55.0781 240.9893 0137225  47.5819 119.0867  2.00570539158187
GPS BIIR-9  (PRN 21)    
1 27704U 03010A   24243.70109646 -.00000119  00000+0  00000+0 0  9992
2 27704  55.0826 350.7857 0254017 329.3316  50.5344  2.00565725156969
GPS BIIR-11 (PRN 19)    
1 28190U 04009A   24244.34427816 -.00000037  00000+0  00000+0 0  9993
2 28190  55.3885 302.0365 0098850 152.1159 271.3170  2.00557134149810
GPS BIIR-13 (PRN 02)    
1 28474U 04045A   24244.91452824 -.00000116  00000+0  00000+0 0  9996
2 28474  55.4118 351.1814 0163105 294.2557 227.0962  2.00562080145308
GPS BIIRM-1 (PRN 17)    
1 28874U 05038A   24244.72408726 -.00000031  00000+0  00000+0 0  9990
2 28874  55.4338 299.4851 0137409 284.8107  75.4335  2.00550427138713
GPS BIIRM-2 (PRN 31)    
1 29486U 06042A   24244.62929894 -.00000040  00000+0  00000+0 0  9999
2 29486  54.6780 177.2992 0104620  40.2329 152.6265  2.00551395131261
GPS BIIRM-3 (PRN 12)    
1 29601U 06052A   24244.28337535  .00000027  00000+0  00000+0 0  9990
2 29601  55.1108 239.9887 0084333  83.5884 277.3809  2.00571846130275
GPS BIIRM-4 (PRN 15)    
1 32260U 07047A   24244.08927360 -.00000010  00000+0  00000+0 0  9992
2 32260  53.6452 107.1456 0158315  77.0404 284.8102  2.00560420123672
GPS BIIRM-5 (PRN 29)    
1 32384U 07062A   24244.42440553 -.00000033  00000+0  00000+0 0  9993
2 32384  55.5751 300.3704 0028300 156.4604 215.9299  2.00551779122385
GPS BIIRM-6 (PRN 07)    
1 32711U 08012A   24244.00592612 -.00000043  00000+0  00000+0 0  9992
2 32711  54.4515 176.0683 0189307 239.8639 118.2297  2.00570205120610
GPS BIIRM-8 (PRN 05)    
1 35752U 09043A   24244.50053866 -.00000041  00000+0  00000+0 0  9991
2 35752  55.7375  53.2909 0056914  74.9281 297.1104  2.00565005110234
GPS BIIF-1  (PRN 25)    
1 36585U 10022A   24244.34943079  .00000021  00000+0  00000+0 0  9998
2 36585  54.4241 234.9644 0114979  61.9986 319.0640  2.00555289104465
GPS BIIF-3  (PRN 24)    
1 38833U 12053A   24244.18691570 -.00000045  00000+0  00000+0 0  9997
2 38833  53.5184 170.4059 0156184  56.9927 304.4844  2.00559799 86302
GPS BIIF-4  (PRN 27)    
1 39166U 13023A   24244.54792623 -.00000024  00000+0  00000+0 0  9993
2 39166  55.0470 295.5424 0123939  44.9990 316.0745  2.00562619 82749
GPS BIIF-5  (PRN 30)    
1 39533U 14008A   24245.04352340 -.00000039  00000+0  00000+0 0  9995
2 39533  53.6006 175.9791 0073268 221.2232 138.2046  2.00572875 77110
GPS BIIF-6  (PRN 06)    
1 39741U 14026A   24244.32667160 -.00000117  00000+0  00000+0 0  9992
2 39741  56.7040 356.9587 0031518 313.9977  45.7525  2.00562999 75404
GPS BIIF-7  (PRN 09)    
1 40105U 14045A   24243.91953480 -.00000013  00000+0  00000+0 0  9991
2 40105  54.9615 114.6212 0028407 115.0223 245.3544  2.00571517 72930
GPS BIIF-8  (PRN 03)    
1 40294U 14068A   24243.79501494 -.00000033  00000+0  00000+0 0  9997
2 40294  56.4860  56.3317 0055199  65.0044 295.6084  2.00564703 72069
GPS BIIF-9  (PRN 26)    
1 40534U 15013A   24244.42319439  .00000014  00000+0  00000+0 0  9990
2 40534  53.3222 231.2787 0090113  30.2082 330.2990  2.00561078 68698
GPS BIIF-10 (PRN 08)    
1 40730U 15033A   24244.58508378 -.00000022  00000+0  00000+0 0  9999
2 40730  54.5296 293.9768 0095097  19.7383 340.7035  2.00563274 66869
GPS BIIF-11 (PRN 10)    
1 41019U 15062A   24244.64533524 -.00000034  00000+0  00000+0 0  9993
2 41019  56.4666  56.1525 0097561 224.5375 134.7122  2.00562702 64701
GPS BIIF-12 (PRN 32)    
1 41328U 16007A   24244.22772217 -.00000010  00000+0  00000+0 0  9998
2 41328  55.1542 115.4681 0080169 238.5750 120.7202  2.00558240 62707
GPS BIII-1  (PRN 04)    
1 43873U 18109A   24244.89374825 -.00000004  00000+0  00000+0 0  9999
2 43873  55.3239 118.0352 0030145 192.5176 179.3464  2.00559356 41956
GPS BIII-2  (PRN 18)    
1 44506U 19056A   24244.51438198 -.00000118  00000+0  00000+0 0  9994
2 44506  55.8365 357.1061 0046148 190.4495 172.6457  2.00572795 36942
GPS BIII-3  (PRN 23)    
1 45854U 20041A   24244.34178044 -.00000038  00000+0  00000+0 0  9990
2 45854  56.1880  54.4767 0046552 193.2839 340.1297  2.00572188 30907
GPS BIII-4  (PRN 14)    
1 46826U 20078A   24244.33079177  .00000022  00000+0  00000+0 0  9998
2 46826  54.1559 237.3540 0049168 198.8546 302.8653  2.00560417 28372
GPS BIII-5  (PRN 11)    
1 48859U 21054A   24244.33733104 -.00000118  00000+0  00000+0 0  9995
2 48859  55.3631 358.7300 0017808 219.9217 109.5203  2.00553748 23616
GPS BIII-6  (PRN 28)    
1 55268U 23009A   24245.06790302 -.00000038  00000+0  00000+0 0  9994
2 55268  55.0861 174.1936 0001371  63.7269 117.6311  2.00559389 12115
